{"type": "FeatureCollection", "features": [ {"type": "Feature", "properties": {"norad_id": 38779, "name": "GSAT-10 (GAGAN/PRN 128)", "group": "gnss", "lat": 0.018163894819585014, "lon": 81.05481063541797, "alt_km": 35781.48125450216, "timestamp": "2025-12-05T18:53:13.524818+00:00", "meta": {"OBJECT_NAME": "GSAT-10 (GAGAN/PRN 128)", "OBJECT_ID": "2012-051B", "EPOCH": "2025-12-05T03:42:38.812896", "MEAN_MOTION": 1.0026888, "ECCENTRICITY": 0.00023414, "INCLINATION": 0.0277, "RA_OF_ASC_NODE": 263.2281, "ARG_OF_PERICENTER": 234.4643, "MEAN_ANOMALY": 75.1387, "EPHEMERIS_TYPE": 0, "CLASSIFICATION_TYPE": "U", "NORAD_CAT_ID": 38779, "ELEMENT_SET_NO": 999, "REV_AT_EPOCH": 4815, "BSTAR": 0, "MEAN_MOTION_DOT": -1.51e-06, "MEAN_MOTION_DDOT": 0}, "tle": {"line1": "1 38779U 12051B   25339.15461589 -.00000151  00000+0  00000+0 0  9990", "line2": "2 38779   0.0277 263.2281 0002341 234.4643  75.1387  1.00268880 48154"}}, "geometry": {"type": "Point", "coordinates": [81.05481063541797, 0.018163894819585014]}}, {"type": "Feature", "properties": {"norad_id": 38833, "name": "GPS BIIF-3  (PRN 24)", "group": "gnss", "lat": -44.50176845274298, "lon": 104.91536027210495, "alt_km": 20446.262144341043, "timestamp": "2025-12-05T18:53:13.524830+00:00", "meta": {"OBJECT_NAME": "GPS BIIF-3  (PRN 24)", "OBJECT_ID": "2012-053A", "EPOCH": "2025-12-04T20:58:35.662368", "MEAN_MOTION": 2.00564858, "ECCENTRICITY": 0.0175571, "INCLINATION": 53.5563, "RA_OF_ASC_NODE": 151.5608, "ARG_OF_PERICENTER": 63.8805, "MEAN_ANOMALY": 297.9293, "EPHEMERIS_TYPE": 0, "CLASSIFICATION_TYPE": "U", "NORAD_CAT_ID": 38833, "ELEMENT_SET_NO": 999, "REV_AT_EPOCH": 9554, "BSTAR": 0, "MEAN_MOTION_DOT": 7.4e-07, "MEAN_MOTION_DDOT": 0}, "tle": {"line1": "1 38833U 12053A   25338.87402387  .00000074  00000+0  00000+0 0  9995", "line2": "2 38833  53.5563 151.5608 0175571  63.8805 297.9293  2.00564858 95548"}}, "geometry": {"type": "Point", "coordinates": [104.91536027210495, -44.50176845274298]}}, {"type": "Feature", "properties": {"norad_id": 38857, "name": "GSAT0103 (GALILEO-FM3)", "group": "gnss", "lat": -51.16332756503782, "lon": 48.882086692969644, "alt_km": 23221.62749213057, "timestamp": "2025-12-05T18:53:13.524844+00:00", "meta": {"OBJECT_NAME": "GSAT0103 (GALILEO-FM3)", "OBJECT_ID": "2012-055A", "EPOCH": "2025-12-01T05:01:21.613152", "MEAN_MOTION": 1.70473256, "ECCENTRICITY": 0.00023005, "INCLINATION": 55.6823, "RA_OF_ASC_NODE": 106.9832, "ARG_OF_PERICENTER": 267.1494, "MEAN_ANOMALY": 92.7944, "EPHEMERIS_TYPE": 0, "CLASSIFICATION_TYPE": "U", "NORAD_CAT_ID": 38857, "ELEMENT_SET_NO": 999, "REV_AT_EPOCH": 8163, "BSTAR": 0, "MEAN_MOTION_DOT": 4.2e-07, "MEAN_MOTION_DDOT": 0}, "tle": {"line1": "1 38857U 12055A   25335.20927793  .00000042  00000+0  00000+0 0  9995", "line2": "2 38857  55.6823 106.9832 0002300 267.1494  92.7944  1.70473256 81637"}}, "geometry": {"type": "Point", "coordinates": [48.882086692969644, -51.16332756503782]}}, {"type": "Feature", "properties": {"norad_id": 38953, "name": "BEIDOU-2 G6 (C02)", "group": "gnss", "lat": 0.48348938690513066, "lon": 82.24438311653198, "alt_km": 35779.374756714715, "timestamp": "2025-12-05T18:53:13.524856+00:00", "meta": {"OBJECT_NAME": "BEIDOU-2 G6 (C02)", "OBJECT_ID": "2012-059A", "EPOCH": "2025-12-05T00:23:51.463104", "MEAN_MOTION": 1.00270434, "ECCENTRICITY": 0.00074327, "INCLINATION": 3.9283, "RA_OF_ASC_NODE": 75.5783, "ARG_OF_PERICENTER": 289.5044, "MEAN_ANOMALY": 159.0083, "EPHEMERIS_TYPE": 0, "CLASSIFICATION_TYPE": "U", "NORAD_CAT_ID": 38953, "ELEMENT_SET_NO": 999, "REV_AT_EPOCH": 4796, "BSTAR": 0, "MEAN_MOTION_DOT": -1.65e-06, "MEAN_MOTION_DDOT": 0}, "tle": {"line1": "1 38953U 12059A   25339.01656786 -.00000165  00000+0  00000+0 0  9997", "line2": "2 38953   3.9283  75.5783 0007432 289.5044 159.0083  1.00270434 47961"}}, "geometry": {"type": "Point", "coordinates": [82.24438311653198, 0.48348938690513066]}}, {"type": "Feature", "properties": {"norad_id": 38977, "name": "LUCH 5B (SDCM/PRN 125)", "group": "gnss", "lat": -9.4533680527808, "lon": -17.888211641473738, "alt_km": 35793.3673450158, "timestamp": "2025-12-05T18:53:13.524871+00:00", "meta": {"OBJECT_NAME": "LUCH 5B (SDCM/PRN 125)", "OBJECT_ID": "2012-061A", "EPOCH": "2025-12-05T00:37:38.725824", "MEAN_MOTION": 1.00268743, "ECCENTRICITY": 0.00076145, "INCLINATION": 10.0636, "RA_OF_ASC_NODE": 51.7756, "ARG_OF_PERICENTER": 190.6462, "MEAN_ANOMALY": 184.6819, "EPHEMERIS_TYPE": 0, "CLASSIFICATION_TYPE": "U", "NORAD_CAT_ID": 38977, "ELEMENT_SET_NO": 999, "REV_AT_EPOCH": 4766, "BSTAR": 0, "MEAN_MOTION_DOT": -1.33e-06, "MEAN_MOTION_DDOT": 0}, "tle": {"line1": "1 38977U 12061A   25339.02614266 -.00000133  00000+0  00000+0 0  9999", "line2": "2 38977  10.0636  51.7756 0007614 190.6462 184.6819  1.00268743 47660"}}, "geometry": {"type": "Point", "coordinates": [-17.888211641473738, -9.4533680527808]}}, {"type": "Feature", "properties": {"norad_id": 39155, "name": "COSMOS 2485 (747)", "group": "gnss", "lat": 16.37292383065292, "lon": -107.6496193048018, "alt_km": 19103.834603429157, "timestamp": "2025-12-05T18:53:13.524883+00:00", "meta": {"OBJECT_NAME": "COSMOS 2485 (747)", "OBJECT_ID": "2013-019A", "EPOCH": "2025-12-05T02:32:45.729312", "MEAN_MOTION": 2.13102875, "ECCENTRICITY": 0.00246247, "INCLINATION": 65.3094, "RA_OF_ASC_NODE": 80.124, "ARG_OF_PERICENTER": 229.2984, "MEAN_ANOMALY": 130.4888, "EPHEMERIS_TYPE": 0, "CLASSIFICATION_TYPE": "U", "NORAD_CAT_ID": 39155, "ELEMENT_SET_NO": 999, "REV_AT_EPOCH": 9814, "BSTAR": 0, "MEAN_MOTION_DOT": -2.1e-07, "MEAN_MOTION_DDOT": 0}, "tle": {"line1": "1 39155U 13019A   25339.10608483 -.00000021  00000+0  00000+0 0  9991", "line2": "2 39155  65.3094  80.1240 0024624 229.2984 130.4888  2.13102875 98144"}}, "geometry": {"type": "Point", "coordinates": [-107.6496193048018, 16.37292383065292]}}, {"type": "Feature", "properties": {"norad_id": 39166, "name": "GPS BIIF-4  (PRN 27)", "group": "gnss", "lat": 30.414981782790356, "lon": -58.58790165171892, "alt_km": 19819.859996639556, "timestamp": "2025-12-05T18:53:13.524894+00:00", "meta": {"OBJECT_NAME": "GPS BIIF-4  (PRN 27)", "OBJECT_ID": "2013-023A", "EPOCH": "2025-12-02T17:50:49.750368", "MEAN_MOTION": 2.00565046, "ECCENTRICITY": 0.0137297, "INCLINATION": 54.6608, "RA_OF_ASC_NODE": 276.9746, "ARG_OF_PERICENTER": 48.5033, "MEAN_ANOMALY": 312.6627, "EPHEMERIS_TYPE": 0, "CLASSIFICATION_TYPE": "U", "NORAD_CAT_ID": 39166, "ELEMENT_SET_NO": 999, "REV_AT_EPOCH": 9194, "BSTAR": 0, "MEAN_MOTION_DOT": -3.8e-07, "MEAN_MOTION_DDOT": 0}, "tle": {"line1": "1 39166U 13023A   25336.74363137 -.00000038  00000+0  00000+0 0  9997", "line2": "2 39166  54.6608 276.9746 0137297  48.5033 312.6627  2.00565046 91947"}}, "geometry": {"type": "Point", "coordinates": [-58.58790165171892, 30.414981782790356]}}, {"type": "Feature", "properties": {"norad_id": 39199, "name": "IRNSS-1A", "group": "gnss", "lat": -7.574870077006558, "lon": 55.82709590063934, "alt_km": 35872.000625981855, "timestamp": "2025-12-05T18:53:13.524906+00:00", "meta": {"OBJECT_NAME": "IRNSS-1A", "OBJECT_ID": "2013-034A", "EPOCH": "2025-12-02T19:49:26.431104", "MEAN_MOTION": 1.00279053, "ECCENTRICITY": 0.00216608, "INCLINATION": 35.2852, "RA_OF_ASC_NODE": 66.6964, "ARG_OF_PERICENTER": 185.4059, "MEAN_ANOMALY": 172.3398, "EPHEMERIS_TYPE": 0, "CLASSIFICATION_TYPE": "U", "NORAD_CAT_ID": 39199, "ELEMENT_SET_NO": 999, "REV_AT_EPOCH": 4539, "BSTAR": 0, "MEAN_MOTION_DOT": 6.5e-07, "MEAN_MOTION_DDOT": 0}, "tle": {"line1": "1 39199U 13034A   25336.82600036  .00000065  00000+0  00000+0 0  9995", "line2": "2 39199  35.2852  66.6964 0021660 185.4059 172.3398  1.00279053 45393"}}, "geometry": {"type": "Point", "coordinates": [55.82709590063934, -7.574870077006558]}}, {"type": "Feature", "properties": {"norad_id": 39533, "name": "GPS BIIF-5  (PRN 30)", "group": "gnss", "lat": 31.831310334849835, "lon": -175.55774681774096, "alt_km": 20386.181312971323, "timestamp": "2025-12-05T18:53:13.524917+00:00", "meta": {"OBJECT_NAME": "GPS BIIF-5  (PRN 30)", "OBJECT_ID": "2014-008A", "EPOCH": "2025-12-04T17:34:38.743104", "MEAN_MOTION": 2.00573893, "ECCENTRICITY": 0.00790018, "INCLINATION": 53.63, "RA_OF_ASC_NODE": 157.2513, "ARG_OF_PERICENTER": 226.4017, "MEAN_ANOMALY": 132.9667, "EPHEMERIS_TYPE": 0, "CLASSIFICATION_TYPE": "U", "NORAD_CAT_ID": 39533, "ELEMENT_SET_NO": 999, "REV_AT_EPOCH": 8578, "BSTAR": 0, "MEAN_MOTION_DOT": 8.2e-07, "MEAN_MOTION_DDOT": 0}, "tle": {"line1": "1 39533U 14008A   25338.73239286  .00000082  00000+0  00000+0 0  9995", "line2": "2 39533  53.6300 157.2513 0079001 226.4017 132.9667  2.00573893 85784"}}, "geometry": {"type": "Point", "coordinates": [-175.55774681774096, 31.831310334849835]}}, {"type": "Feature", "properties": {"norad_id": 39617, "name": "ASTRA 5B (EGNOS/PRN 123)", "group": "gnss", "lat": 0.01998542549118262, "lon": 21.680577301456523, "alt_km": 35797.756837666406, "timestamp": "2025-12-05T18:53:13.524931+00:00", "meta": {"OBJECT_NAME": "ASTRA 5B (EGNOS/PRN 123)", "OBJECT_ID": "2014-011B", "EPOCH": "2025-12-05T04:47:38.616864", "MEAN_MOTION": 1.00268092, "ECCENTRICITY": 0.00045674, "INCLINATION": 0.0497, "RA_OF_ASC_NODE": 17.4351, "ARG_OF_PERICENTER": 240.6521, "MEAN_ANOMALY": 271.598, "EPHEMERIS_TYPE": 0, "CLASSIFICATION_TYPE": "U", "NORAD_CAT_ID": 39617, "ELEMENT_SET_NO": 999, "REV_AT_EPOCH": 4272, "BSTAR": 0, "MEAN_MOTION_DOT": 1.49e-06, "MEAN_MOTION_DDOT": 0}, "tle": {"line1": "1 39617U 14011B   25339.19975251  .00000149  00000+0  00000+0 0  9996", "line2": "2 39617   0.0497  17.4351 0004567 240.6521 271.5980  1.00268092 42726"}}, "geometry": {"type": "Point", "coordinates": [21.680577301456523, 0.01998542549118262]}}]}